[{"OBJECT_NAME":"ONEWEB-0298","OBJECT_ID":"2021-075N","EPOCH":"2025-10-26T20:09:58.761216","MEAN_MOTION":13.17649393,"ECCENTRICITY":0.00016206,"INCLINATION":87.9121,"RA_OF_ASC_NODE":52.275,"ARG_OF_PERICENTER":101.1002,"MEAN_ANOMALY":259.0312,"EPHEMERIS_TYPE":0,"CLASSIFICATION_TYPE":"U","NORAD_CAT_ID":49087,"ELEMENT_SET_NO":999,"REV_AT_EPOCH":20289,"BSTAR":0.00022480982,"MEAN_MOTION_DOT":1.0e-6,"MEAN_MOTION_DDOT":0},{"OBJECT_NAME":"ONEWEB-0299","OBJECT_ID":"2021-075P","EPOCH":"2025-10-26T20:12:12.642336","MEAN_MOTION":13.17648682,"ECCENTRICITY":0.00015928,"INCLINATION":87.9127,"RA_OF_ASC_NODE":52.2327,"ARG_OF_PERICENTER":95.1363,"MEAN_ANOMALY":264.9951,"EPHEMERIS_TYPE":0,"CLASSIFICATION_TYPE":"U","NORAD_CAT_ID":49088,"ELEMENT_SET_NO":999,"REV_AT_EPOCH":20287,"BSTAR":0.0002451136,"MEAN_MOTION_DOT":1.08e-6,"MEAN_MOTION_DDOT":0},{"OBJECT_NAME":"ONEWEB-0300","OBJECT_ID":"2021-075Q","EPOCH":"2025-10-26T19:38:15.885024","MEAN_MOTION":13.12442311,"ECCENTRICITY":0.00014642,"INCLINATION":87.8971,"RA_OF_ASC_NODE":37.0098,"ARG_OF_PERICENTER":109.8699,"MEAN_ANOMALY":250.2587,"EPHEMERIS_TYPE":0,"CLASSIFICATION_TYPE":"U","NORAD_CAT_ID":49089,"ELEMENT_SET_NO":999,"REV_AT_EPOCH":20459,"BSTAR":0.00046644222,"MEAN_MOTION_DOT":1.81e-6,"MEAN_MOTION_DDOT":0},{"OBJECT_NAME":"ONEWEB-0301","OBJECT_ID":"2021-075R","EPOCH":"2025-10-26T19:14:55.472352","MEAN_MOTION":13.12442954,"ECCENTRICITY":0.00014741,"INCLINATION":87.8967,"RA_OF_ASC_NODE":37.0163,"ARG_OF_PERICENTER":113.2381,"MEAN_ANOMALY":246.8903,"EPHEMERIS_TYPE":0,"CLASSIFICATION_TYPE":"U","NORAD_CAT_ID":49090,"ELEMENT_SET_NO":999,"REV_AT_EPOCH":20395,"BSTAR":0.0012936682,"MEAN_MOTION_DOT":4.78e-6,"MEAN_MOTION_DDOT":0},{"OBJECT_NAME":"ONEWEB-0302","OBJECT_ID":"2021-075S","EPOCH":"2025-10-26T17:06:25.332480","MEAN_MOTION":13.12445822,"ECCENTRICITY":0.00020326,"INCLINATION":87.897,"RA_OF_ASC_NODE":37.0413,"ARG_OF_PERICENTER":96.354,"MEAN_ANOMALY":263.782,"EPHEMERIS_TYPE":0,"CLASSIFICATION_TYPE":"U","NORAD_CAT_ID":49091,"ELEMENT_SET_NO":999,"REV_AT_EPOCH":20392,"BSTAR":0.00064927205,"MEAN_MOTION_DOT":2.46e-6,"MEAN_MOTION_DDOT":0},{"OBJECT_NAME":"ONEWEB-0304","OBJECT_ID":"2021-075T","EPOCH":"2025-10-26T19:35:45.845376","MEAN_MOTION":13.17649357,"ECCENTRICITY":0.00016922,"INCLINATION":87.9123,"RA_OF_ASC_NODE":52.2682,"ARG_OF_PERICENTER":95.3157,"MEAN_ANOMALY":264.8167,"EPHEMERIS_TYPE":0,"CLASSIFICATION_TYPE":"U","NORAD_CAT_ID":49092,"ELEMENT_SET_NO":999,"REV_AT_EPOCH":20284,"BSTAR":1.1741216e-5,"MEAN_MOTION_DOT":1.7e-7,"MEAN_MOTION_DDOT":0},{"OBJECT_NAME":"ONEWEB-0305","OBJECT_ID":"2021-075U","EPOCH":"2025-10-26T19:26:02.563296","MEAN_MOTION":13.17649917,"ECCENTRICITY":0.00016249,"INCLINATION":87.9125,"RA_OF_ASC_NODE":52.2463,"ARG_OF_PERICENTER":86.0797,"MEAN_ANOMALY":274.052,"EPHEMERIS_TYPE":0,"CLASSIFICATION_TYPE":"U","NORAD_CAT_ID":49093,"ELEMENT_SET_NO":999,"REV_AT_EPOCH":20287,"BSTAR":1.2679628e-5,"MEAN_MOTION_DOT":1.8e-7,"MEAN_MOTION_DDOT":0},{"OBJECT_NAME":"ONEWEB-0308","OBJECT_ID":"2021-075V","EPOCH":"2025-10-26T18:46:51.349728","MEAN_MOTION":13.12443451,"ECCENTRICITY":0.00017371,"INCLINATION":87.8973,"RA_OF_ASC_NODE":37.0198,"ARG_OF_PERICENTER":102.3475,"MEAN_ANOMALY":257.7848,"EPHEMERIS_TYPE":0,"CLASSIFICATION_TYPE":"U","NORAD_CAT_ID":49094,"ELEMENT_SET_NO":999,"REV_AT_EPOCH":20394,"BSTAR":-0.0007446452,"MEAN_MOTION_DOT":-2.55e-6,"MEAN_MOTION_DDOT":0},{"OBJECT_NAME":"ONEWEB-0309","OBJECT_ID":"2021-075W","EPOCH":"2025-10-26T19:30:54.043200","MEAN_MOTION":13.17648208,"ECCENTRICITY":0.00021162,"INCLINATION":87.9124,"RA_OF_ASC_NODE":52.2621,"ARG_OF_PERICENTER":95.3311,"MEAN_ANOMALY":264.8062,"EPHEMERIS_TYPE":0,"CLASSIFICATION_TYPE":"U","NORAD_CAT_ID":49095,"ELEMENT_SET_NO":999,"REV_AT_EPOCH":20284,"BSTAR":-0.00012213651,"MEAN_MOTION_DOT":-3.5e-7,"MEAN_MOTION_DDOT":0},{"OBJECT_NAME":"ONEWEB-0310","OBJECT_ID":"2021-075X","EPOCH":"2025-10-26T19:07:54.471072","MEAN_MOTION":13.1244263,"ECCENTRICITY":0.00018547,"INCLINATION":87.8959,"RA_OF_ASC_NODE":37.058,"ARG_OF_PERICENTER":99.8221,"MEAN_ANOMALY":260.3118,"EPHEMERIS_TYPE":0,"CLASSIFICATION_TYPE":"U","NORAD_CAT_ID":49096,"ELEMENT_SET_NO":999,"REV_AT_EPOCH":20457,"BSTAR":0.0013225627,"MEAN_MOTION_DOT":4.89e-6,"MEAN_MOTION_DDOT":0},{"OBJECT_NAME":"ONEWEB-0311","OBJECT_ID":"2021-075Y","EPOCH":"2025-10-26T19:40:36.869952","MEAN_MOTION":13.17650969,"ECCENTRICITY":0.00015005,"INCLINATION":87.9121,"RA_OF_ASC_NODE":52.2575,"ARG_OF_PERICENTER":89.7099,"MEAN_ANOMALY":270.4204,"EPHEMERIS_TYPE":0,"CLASSIFICATION_TYPE":"U","NORAD_CAT_ID":49097,"ELEMENT_SET_NO":999,"REV_AT_EPOCH":20289,"BSTAR":6.707846e-6,"MEAN_MOTION_DOT":1.5e-7,"MEAN_MOTION_DDOT":0},{"OBJECT_NAME":"ONEWEB-0312","OBJECT_ID":"2021-075Z","EPOCH":"2025-10-26T20:02:29.329152","MEAN_MOTION":13.17648855,"ECCENTRICITY":0.00018059,"INCLINATION":87.9114,"RA_OF_ASC_NODE":52.2839,"ARG_OF_PERICENTER":88.9845,"MEAN_ANOMALY":271.1494,"EPHEMERIS_TYPE":0,"CLASSIFICATION_TYPE":"U","NORAD_CAT_ID":49098,"ELEMENT_SET_NO":999,"REV_AT_EPOCH":20287,"BSTAR":0.00023270757,"MEAN_MOTION_DOT":1.03e-6,"MEAN_MOTION_DDOT":0},{"OBJECT_NAME":"ONEWEB-0313","OBJECT_ID":"2021-075AA","EPOCH":"2025-10-26T20:09:35.021088","MEAN_MOTION":13.17648814,"ECCENTRICITY":0.00016746,"INCLINATION":87.9111,"RA_OF_ASC_NODE":52.2921,"ARG_OF_PERICENTER":96.5828,"MEAN_ANOMALY":263.5495,"EPHEMERIS_TYPE":0,"CLASSIFICATION_TYPE":"U","NORAD_CAT_ID":49099,"ELEMENT_SET_NO":999,"REV_AT_EPOCH":20286,"BSTAR":0.0001021438,"MEAN_MOTION_DOT":5.3e-7,"MEAN_MOTION_DDOT":0},{"OBJECT_NAME":"ONEWEB-0314","OBJECT_ID":"2021-075AB","EPOCH":"2025-10-26T21:10:31.715328","MEAN_MOTION":13.17648581,"ECCENTRICITY":0.00017856,"INCLINATION":87.9124,"RA_OF_ASC_NODE":52.2293,"ARG_OF_PERICENTER":87.3646,"MEAN_ANOMALY":272.769,"EPHEMERIS_TYPE":0,"CLASSIFICATION_TYPE":"U","NORAD_CAT_ID":49100,"ELEMENT_SET_NO":999,"REV_AT_EPOCH":20284,"BSTAR":9.226882e-6,"MEAN_MOTION_DOT":1.6e-7,"MEAN_MOTION_DDOT":0},{"OBJECT_NAME":"ONEWEB-0315","OBJECT_ID":"2021-075AC","EPOCH":"2025-10-26T18:30:30.745152","MEAN_MOTION":13.12445069,"ECCENTRICITY":0.000139,"INCLINATION":87.8965,"RA_OF_ASC_NODE":37.0098,"ARG_OF_PERICENTER":93.7437,"MEAN_ANOMALY":266.385,"EPHEMERIS_TYPE":0,"CLASSIFICATION_TYPE":"U","NORAD_CAT_ID":49101,"ELEMENT_SET_NO":999,"REV_AT_EPOCH":20455,"BSTAR":-0.00092385121,"MEAN_MOTION_DOT":-3.2e-6,"MEAN_MOTION_DDOT":0},{"OBJECT_NAME":"ONEWEB-0316","OBJECT_ID":"2021-075AD","EPOCH":"2025-10-26T18:18:22.929696","MEAN_MOTION":13.18686119,"ECCENTRICITY":0.00017501,"INCLINATION":87.9226,"RA_OF_ASC_NODE":21.826,"ARG_OF_PERICENTER":99.7793,"MEAN_ANOMALY":260.3537,"EPHEMERIS_TYPE":0,"CLASSIFICATION_TYPE":"U","NORAD_CAT_ID":49102,"ELEMENT_SET_NO":999,"REV_AT_EPOCH":20644,"BSTAR":-6.9620853e-5,"MEAN_MOTION_DOT":-1.5e-7,"MEAN_MOTION_DDOT":0},{"OBJECT_NAME":"ONEWEB-0317","OBJECT_ID":"2021-075AE","EPOCH":"2025-10-26T18:21:10.509408","MEAN_MOTION":13.12443901,"ECCENTRICITY":0.00025412,"INCLINATION":87.8969,"RA_OF_ASC_NODE":37.0272,"ARG_OF_PERICENTER":107.3858,"MEAN_ANOMALY":252.7549,"EPHEMERIS_TYPE":0,"CLASSIFICATION_TYPE":"U","NORAD_CAT_ID":49103,"ELEMENT_SET_NO":999,"REV_AT_EPOCH":20457,"BSTAR":-0.0011727577,"MEAN_MOTION_DOT":-4.09e-6,"MEAN_MOTION_DDOT":0}]
