ONEWEB-0298             
1 49087U 21075N   25299.84026344  .00000100  00000+0  22481-3 0  9991
2 49087  87.9121  52.2750 0001620 101.1002 259.0312 13.17649393202892
ONEWEB-0299             
1 49088U 21075P   25299.84181299  .00000108  00000+0  24511-3 0  9997
2 49088  87.9127  52.2327 0001592  95.1363 264.9951 13.17648682202871
ONEWEB-0300             
1 49089U 21075Q   25299.81823941  .00000181  00000+0  46644-3 0  9994
2 49089  87.8971  37.0098 0001464 109.8699 250.2587 13.12442311204597
ONEWEB-0301             
1 49090U 21075R   25299.80203093  .00000478  00000+0  12937-2 0  9991
2 49090  87.8967  37.0163 0001474 113.2381 246.8903 13.12442954203950
ONEWEB-0302             
1 49091U 21075S   25299.71279320  .00000246  00000+0  64927-3 0  9998
2 49091  87.8970  37.0413 0002032  96.3540 263.7820 13.12445822203922
ONEWEB-0304             
1 49092U 21075T   25299.81650284  .00000017  00000+0  11741-4 0  9995
2 49092  87.9123  52.2682 0001692  95.3157 264.8167 13.17649357202845
ONEWEB-0305             
1 49093U 21075U   25299.80975189  .00000018  00000+0  12680-4 0  9993
2 49093  87.9125  52.2463 0001624  86.0797 274.0520 13.17649917202878
ONEWEB-0308             
1 49094U 21075V   25299.78253877 -.00000255  00000+0 -74465-3 0  9997
2 49094  87.8973  37.0198 0001737 102.3475 257.7848 13.12443451203945
ONEWEB-0309             
1 49095U 21075W   25299.81312550 -.00000035  00000+0 -12214-3 0  9996
2 49095  87.9124  52.2621 0002116  95.3311 264.8062 13.17648208202844
ONEWEB-0310             
1 49096U 21075X   25299.79715823  .00000489  00000+0  13226-2 0  9998
2 49096  87.8959  37.0580 0001854  99.8221 260.3118 13.12442630204573
ONEWEB-0311             
1 49097U 21075Y   25299.81987118  .00000015  00000+0  67078-5 0  9992
2 49097  87.9121  52.2575 0001500  89.7099 270.4204 13.17650969202890
ONEWEB-0312             
1 49098U 21075Z   25299.83506168  .00000103  00000+0  23271-3 0  9990
2 49098  87.9114  52.2839 0001805  88.9845 271.1494 13.17648855202872
ONEWEB-0313             
1 49099U 21075AA  25299.83998867  .00000053  00000+0  10214-3 0  9999
2 49099  87.9111  52.2921 0001674  96.5828 263.5495 13.17648814202862
ONEWEB-0314             
1 49100U 21075AB  25299.88231152  .00000016  00000+0  92269-5 0  9995
2 49100  87.9124  52.2293 0001785  87.3646 272.7690 13.17648581202848
ONEWEB-0315             
1 49101U 21075AC  25299.77118918 -.00000320  00000+0 -92385-3 0  9995
2 49101  87.8965  37.0098 0001390  93.7437 266.3850 13.12445069204554
ONEWEB-0316             
1 49102U 21075AD  25299.76276539 -.00000015  00000+0 -69621-4 0  9998
2 49102  87.9226  21.8260 0001750  99.7793 260.3537 13.18686119206444
ONEWEB-0317             
1 49103U 21075AE  25299.76470497 -.00000409  00000+0 -11728-2 0  9998
2 49103  87.8969  37.0272 0002541 107.3858 252.7549 13.12443901204571
